[{"OBJECT_NAME":"PRAETORIAN SDA_611","OBJECT_ID":"2025-203K","EPOCH":"2026-03-09T12:43:32.643552","MEAN_MOTION":13.83296236,"ECCENTRICITY":0.00068676,"INCLINATION":81.297,"RA_OF_ASC_NODE":103.1149,"ARG_OF_PERICENTER":110.8784,"MEAN_ANOMALY":249.3108,"EPHEMERIS_TYPE":0,"CLASSIFICATION_TYPE":"U","NORAD_CAT_ID":65574,"ELEMENT_SET_NO":999,"REV_AT_EPOCH":2490,"BSTAR":0.00026081524,"MEAN_MOTION_DOT":2.98e-6,"MEAN_MOTION_DDOT":0},{"OBJECT_NAME":"CZ-6A DEB","OBJECT_ID":"2024-140WH","EPOCH":"2026-03-09T13:16:18.329952","MEAN_MOTION":14.07579394,"ECCENTRICITY":0.01151121,"INCLINATION":88.8323,"RA_OF_ASC_NODE":276.3599,"ARG_OF_PERICENTER":203.9592,"MEAN_ANOMALY":155.621,"EPHEMERIS_TYPE":0,"CLASSIFICATION_TYPE":"U","NORAD_CAT_ID":61368,"ELEMENT_SET_NO":999,"REV_AT_EPOCH":7744,"BSTAR":0.0017705556,"MEAN_MOTION_DOT":3.186e-5,"MEAN_MOTION_DDOT":0}]
